#0 METOP-B
#1 38771U 12049A   24050.26238594  .00000000  00000+0  13554-3 0 00016
#2 38771  98.6441 110.0688 0001240  78.0335 147.9253 14.21473336592659
#0 METOP-C
#1 43689U 18087A   24050.29985611  .00000000  00000+0  93239-4 0 00019
#2 43689  98.6960 111.1437 0003242  76.4938 152.8786 14.21485938274236
#0 NOAA-20
#1 43013U 17073A   24050.23673188  .00000000  00000+0  92249-4 0 00011
#2 43013  98.7389 350.0210 0001596 113.6498 224.3047 14.19548730324026
#0 NOAA-21
#1 54234U 22150A   24050.23880806  .00000000  00000+0  12955-3 0 00012
#2 54234  98.7415 349.5941 0001574 101.0691 164.3209 14.19518623 66102
#0 Suomi-NPP	
#1 37849U 11061A   24050.22979277  .00000000  00000+0  10097-3 0 00019
#2 37849  98.7310 350.0299 0000685 107.0511  14.7652 14.19559710637994
0 Sentinel-1A
1 39634U 14016A   25159.72192394 -.00000254  00000-0 -44174-4 0  9993
2 39634  98.1796 167.6682 0001295  88.9608 271.1740 14.59199020595583
#0 Sentinel-1B
#1 41456U 16025A   24050.14253115  .00005035  00000-0  55451-3 0  9993
#2 41456  98.1761  66.9340 0027827  54.9960 305.3861 14.87743749416912
0 Sentinel-1C
1 62261U 24235A   25160.92111587  .00000097  00000-0  30360-4 0  9993
2 62261  98.1826 168.5591 0001366  89.0969 271.0387 14.59197769 27123
0 Sentinel-2A
1  40697U 15028A   25160.90699607  .00000101  00000-0  55178-4 0  9994
2 40697  98.5695 236.0930 0001311  96.9571 263.1761 14.30821815520495
0 Sentinel-2B
1 42063U 17013A   25160.89980352  .00000096  00000-0  53349-4 0  9998
2 42063  98.5698 236.0264 0001094  95.4923 264.6384 14.30823310431401
0 Sentinel-2C
1 60989U 24157A   25160.79516061  .00000100  00000-0  54666-4 0  9992
2 60989  98.5687 236.0024 0001194  96.7395 263.3924 14.30819641 39736
0 Sentinel-3A
1 41335U 16011A   25160.89698279  .00000107  00000-0  62449-4 0  9994
2 41335  98.6255 228.5913 0001371 107.6434 252.4897 14.26741358484970
0 Sentinel-3B
1 43437U 18039A   25160.79993971  .00000096  00000-0  57885-4 0  9992
2 43437  98.6300 228.6199 0000717  90.8562 269.2701 14.26731543371027
0 Sentinel-6MF
1 46984U 20086A   24050.00000000  .00000000  00000+0  00000+0 0 00010
2 46984  66.0406  98.8244 0007815 270.3428  45.0430 12.80917831151695
0 SWOT
1 54754U 22173A   25154.85241588  .00000068  00000-0  47826-4 0  9993
2 54754  77.6091 186.0229 0000892 195.8597 164.2527 14.00171056126201